OBJECT_NAME,OBJECT_ID,EPOCH,MEAN_MOTION,ECCENTRICITY,INCLINATION,RA_OF_ASC_NODE,ARG_OF_PERICENTER,MEAN_ANOMALY,EPHEMERIS_TYPE,CLASSIFICATION_TYPE,NORAD_CAT_ID,ELEMENT_SET_NO,REV_AT_EPOCH,BSTAR,MEAN_MOTION_DOT,MEAN_MOTION_DDOT
THURAYA-4,2025-001A,2026-06-07T10:12:50.277024,1.00272997,.0000094,0.0233,62.2878,59.8426,331.2226,0,U,62483,999,408,0,.154E-5,0
SHIJIAN-25 (SJ-25),2025-002A,2026-06-07T18:38:12.865920,1.00274168,.0051967,5.0898,61.2190,172.8822,68.9603,0,U,62485,999,526,0,-.335E-5,0
TJS-14,2025-017A,2026-06-07T11:48:13.462272,1.00270940,.0000668,0.8056,294.8958,277.4010,239.0175,0,U,62804,999,517,0,.129E-5,0
SPAINSAT NG I,2025-021A,2026-06-07T06:43:14.350080,1.00270593,.0000107,0.0027,351.6907,116.3561,277.4616,0,U,62852,999,388,0,.166E-5,0
QZS-6 (MICHIBIKI-6),2025-023A,2026-06-07T10:26:09.375936,1.00274254,.0002017,0.0278,47.9890,35.9725,58.9107,0,U,62876,999,485,0,-.219E-5,0
ZHONGXING-10R,2025-036A,2026-06-07T10:31:53.825088,1.00270394,.0003335,0.0455,251.1693,250.7585,22.4285,0,U,63075,999,486,0,-.338E-5,0
TJS-15,2025-045A,2026-06-07T17:17:50.716032,1.00268269,.0005413,0.2768,85.4125,298.5865,225.9531,0,U,63157,999,466,0,-.249E-5,0
TIANLIAN 2-04,2025-062A,2026-06-07T10:23:02.175648,1.00270475,.0031469,4.4008,274.5789,10.6665,206.4097,0,U,63361,999,450,0,-.122E-5,0
TJS-16,2025-064A,2026-06-07T18:35:59.515296,1.00272157,.0003606,1.0729,81.5109,292.5698,321.6958,0,U,63397,999,429,0,-.9E-6,0
TJS-17,2025-073A,2026-06-07T18:36:07.262784,1.00272271,.0002371,1.0387,82.7755,300.4090,316.5395,0,U,63524,999,419,0,-.54E-6,0
TIANLIAN 2-05,2025-084A,2026-06-07T01:32:50.050752,1.00271781,.0003512,4.4779,279.9503,145.3561,233.7856,0,U,63662,999,428,0,.136E-5,0
TJS-19,2025-097A,2026-06-07T18:37:44.513760,1.00269548,.0002038,3.3030,317.2737,234.6960,124.9234,0,U,63924,999,404,0,-.264E-5,0
CHINASAT 3B,2025-106A,2026-06-07T10:48:04.229280,1.00277189,.0002752,0.0371,142.0572,327.1330,116.0194,0,U,64062,999,396,0,-.29E-6,0
SXM-10,2025-122A,2026-06-07T00:53:56.175072,1.00271082,.0001732,0.0183,20.3491,353.7473,138.6676,0,U,64290,999,358,0,-.3E-7,0
COSMOS 2589,2025-131A,2026-06-07T18:03:29.155392,1.00272244,.0001205,0.0438,71.9827,72.8146,120.2091,0,U,64467,999,346,0,-.276E-5,0
CHINASAT 9C,2025-132A,2026-06-07T10:26:39.329088,1.00272796,.0002862,0.0290,261.0729,176.0059,67.6382,0,U,64470,999,405,0,-.233E-5,0
MTG-S1,2025-143A,2026-06-07T08:16:38.654112,1.00271643,.0001081,0.6120,336.7382,32.6019,7.0952,0,U,64723,999,332,0,-.18E-6,0
DROR 1,2025-148A,2026-06-07T08:16:31.165824,1.00271727,.0002909,0.0096,349.4780,41.9653,344.4304,0,U,64784,999,319,0,-.2E-6,0
SHIYAN-29,2025-196A,2026-06-07T01:53:55.529088,1.00257449,.0010875,28.8106,18.6644,171.0711,188.4294,0,U,65486,999,277,0,-.258E-5,0
NUSANTARA LIMA (NUSANTARA 5),2025-205A,2026-06-07T08:21:38.894112,1.00270328,.0000413,0.0348,144.4647,315.7062,33.8452,0,U,65588,999,262,0,-.343E-5,0
TJS-20,2025-238A,2026-06-07T10:18:10.141920,1.00272638,.0004768,5.4923,299.5879,156.2812,16.8906,0,U,66142,999,223,0,.35E-6,0
CMS-03 (GSAT-7R),2025-249B,2026-06-07T10:21:24.832224,1.00271487,.0001848,0.0277,260.6550,174.0941,50.4406,0,U,66311,999,225,0,-.62E-6,0
VIASAT-3 F2,2025-261A,2026-06-07T07:55:10.711776,1.00269233,.0000108,0.0145,106.0525,50.9821,138.4962,0,U,66454,999,269,0,0,0
SHIJIAN-28 (SJ-28),2025-277A,2026-06-07T07:08:16.566144,1.00268853,.0000453,4.5649,272.2908,356.3128,211.0601,0,U,66549,999,205,0,-.347E-5,0
TJS-22,2025-290A,2026-06-06T21:40:40.344672,1.00271913,.0001994,1.5530,286.4472,333.0725,27.4059,0,U,66990,999,192,0,.7E-7,0
TJS-23,2025-306A,2026-06-06T15:08:31.562304,1.00272816,.000507,5.6115,297.5457,164.5839,195.5213,0,U,67226,999,178,0,.27E-6,0
FENGYUN 4C,2025-312A,2026-06-07T07:12:53.623296,1.00271188,.0000559,0.0424,147.7402,25.5803,323.6123,0,U,67246,999,168,0,-.308E-5,0
SHIJIAN-29A (SJ-29A),2025-315A,2026-06-07T17:38:56.642784,1.00269963,.0003287,3.3727,95.3464,21.0962,117.6765,0,U,67302,999,152,0,-.52E-6,0
SHIJIAN-29B (SJ-29B),2025-315C,2026-06-07T17:34:48.933120,1.00269952,.0003619,3.3716,95.3392,24.7118,113.0781,0,U,67403,999,159,0,-.53E-6,0
ELEKTRO-L 5,2026-028A,2026-06-07T01:53:57.231168,1.00271265,.0001582,0.2703,308.1412,182.3159,229.5648,0,U,67756,999,115,0,-.83E-6,0
JAM-E JAM 1,2026-028B,2026-06-07T05:01:56.637984,1.00271309,.0000834,0.2821,299.3046,300.0347,125.6616,0,U,67757,999,102,0,.17E-5,0
ECHOSTAR 25,2026-045A,2026-06-07T00:55:41.005920,1.00268955,.0001223,0.0154,352.3663,96.3760,70.6328,0,U,68126,999,89,0,0,0
