THURAYA-4               
1 62483U 25001A   26158.42558191  .00000154  00000+0  00000+0 0  9996
2 62483   0.0233  62.2878 0000094  59.8426 331.2226  1.00272997  4081
SHIJIAN-25 (SJ-25)      
1 62485U 25002A   26158.77653780 -.00000335  00000+0  00000+0 0  9999
2 62485   5.0898  61.2190 0051967 172.8822  68.9603  1.00274168  5268
TJS-14                  
1 62804U 25017A   26158.49182248  .00000129  00000+0  00000+0 0  9995
2 62804   0.8056 294.8958 0000668 277.4010 239.0175  1.00270940  5170
SPAINSAT NG I           
1 62852U 25021A   26158.28002720  .00000166  00000+0  00000+0 0  9997
2 62852   0.0027 351.6907 0000107 116.3561 277.4616  1.00270593  3885
QZS-6 (MICHIBIKI-6)     
1 62876U 25023A   26158.43483074 -.00000219  00000+0  00000+0 0  9997
2 62876   0.0278  47.9890 0002017  35.9725  58.9107  1.00274254  4858
ZHONGXING-10R           
1 63075U 25036A   26158.43881742 -.00000338  00000+0  00000+0 0  9999
2 63075   0.0455 251.1693 0003335 250.7585  22.4285  1.00270394  4867
TJS-15                  
1 63157U 25045A   26158.72072588 -.00000249  00000+0  00000+0 0  9993
2 63157   0.2768  85.4125 0005413 298.5865 225.9531  1.00268269  4665
TIANLIAN 2-04           
1 63361U 25062A   26158.43266407 -.00000122  00000+0  00000+0 0  9992
2 63361   4.4008 274.5789 0031469  10.6665 206.4097  1.00270475  4509
TJS-16                  
1 63397U 25064A   26158.77499439 -.00000090  00000+0  00000+0 0  9997
2 63397   1.0729  81.5109 0003606 292.5698 321.6958  1.00272157  4293
TJS-17                  
1 63524U 25073A   26158.77508406 -.00000054  00000+0  00000+0 0  9994
2 63524   1.0387  82.7755 0002371 300.4090 316.5395  1.00272271  4192
TIANLIAN 2-05           
1 63662U 25084A   26158.06446818  .00000136  00000+0  00000+0 0  9999
2 63662   4.4779 279.9503 0003512 145.3561 233.7856  1.00271781  4282
TJS-19                  
1 63924U 25097A   26158.77620965 -.00000264  00000+0  00000+0 0  9992
2 63924   3.3030 317.2737 0002038 234.6960 124.9234  1.00269548  4046
CHINASAT 3B             
1 64062U 25106A   26158.45004895 -.00000029  00000+0  00000+0 0  9999
2 64062   0.0371 142.0572 0002752 327.1330 116.0194  1.00277189  3962
SXM-10                  
1 64290U 25122A   26158.03745573 -.00000003  00000+0  00000+0 0  9991
2 64290   0.0183  20.3491 0001732 353.7473 138.6676  1.00271082  3583
COSMOS 2589             
1 64467U 25131A   26158.75242078 -.00000276  00000+0  00000+0 0  9990
2 64467   0.0438  71.9827 0001205  72.8146 120.2091  1.00272244  3464
CHINASAT 9C             
1 64470U 25132A   26158.43517742 -.00000233  00000+0  00000+0 0  9996
2 64470   0.0290 261.0729 0002862 176.0059  67.6382  1.00272796  4052
MTG-S1                  
1 64723U 25143A   26158.34489183 -.00000018  00000+0  00000+0 0  9997
2 64723   0.6120 336.7382 0001081  32.6019   7.0952  1.00271643  3321
DROR 1                  
1 64784U 25148A   26158.34480516 -.00000020  00000+0  00000+0 0  9993
2 64784   0.0096 349.4780 0002909  41.9653 344.4304  1.00271727  3191
SHIYAN-29               
1 65486U 25196A   26158.07911492 -.00000258  00000+0  00000+0 0  9991
2 65486  28.8106  18.6644 0010875 171.0711 188.4294  1.00257449  2778
NUSANTARA LIMA (NUSANT*)
1 65588U 25205A   26158.34836683 -.00000343  00000+0  00000+0 0  9998
2 65588   0.0348 144.4647 0000413 315.7062  33.8452  1.00270328  2629
TJS-20                  
1 66142U 25238A   26158.42928405  .00000035  00000+0  00000+0 0  9991
2 66142   5.4923 299.5879 0004768 156.2812  16.8906  1.00272638  2239
CMS-03 (GSAT-7R)        
1 66311U 25249B   26158.43153741 -.00000062  00000+0  00000+0 0  9996
2 66311   0.0277 260.6550 0001848 174.0941  50.4406  1.00271487  2254
VIASAT-3 F2             
1 66454U 25261A   26158.32998509  .00000000  00000+0  00000+0 0  9996
2 66454   0.0145 106.0525 0000108  50.9821 138.4962  1.00269233  2696
SHIJIAN-28 (SJ-28)      
1 66549U 25277A   26158.29741396 -.00000347  00000+0  00000+0 0  9999
2 66549   4.5649 272.2908 0000453 356.3128 211.0601  1.00268853  2051
TJS-22                  
1 66990U 25290A   26157.90324473  .00000007  00000+0  00000+0 0  9996
2 66990   1.5530 286.4472 0001994 333.0725  27.4059  1.00271913  1928
TJS-23                  
1 67226U 25306A   26157.63092086  .00000027  00000+0  00000+0 0  9991
2 67226   5.6115 297.5457 0005070 164.5839 195.5213  1.00272816  1789
FENGYUN 4C              
1 67246U 25312A   26158.30062064 -.00000308  00000+0  00000+0 0  9991
2 67246   0.0424 147.7402 0000559  25.5803 323.6123  1.00271188  1687
SHIJIAN-29A (SJ-29A)    
1 67302U 25315A   26158.73537781 -.00000052  00000+0  00000+0 0  9993
2 67302   3.3727  95.3464 0003287  21.0962 117.6765  1.00269963  1520
SHIJIAN-29B (SJ-29B)    
1 67403U 25315C   26158.73251080 -.00000053  00000+0  00000+0 0  9991
2 67403   3.3716  95.3392 0003619  24.7118 113.0781  1.00269952  1595
ELEKTRO-L 5             
1 67756U 26028A   26158.07913462 -.00000083  00000+0  00000+0 0  9993
2 67756   0.2703 308.1412 0001582 182.3159 229.5648  1.00271265  1156
JAM-E JAM 1             
1 67757U 26028B   26158.20968331  .00000170  00000+0  00000+0 0  9990
2 67757   0.2821 299.3046 0000834 300.0347 125.6616  1.00271309  1025
ECHOSTAR 25             
1 68126U 26045A   26158.03866905  .00000000  00000+0  00000+0 0  9997
2 68126   0.0154 352.3663 0001223  96.3760  70.6328  1.00268955   891
